Location Name,Address,City,State/Province,Postal Code,Country
Infosys Limited,Electronics City, Hosur Road,Bengaluru,Karnataka,560100,India
Infosys Limited,Plot No. 1, Rajiv Gandhi Infotech Park,Hinjawadi,Pune,Maharashtra,411057,India
Infosys Limited,No. 110-P, Q & R, Doddathogur Village, Electronic City,Bengaluru,Karnataka,560100,India
Infosys Limited,Plot No. 44/97 A, 3rd Cross, Electronic City,Bengaluru,Karnataka,560100,India
Infosys Limited,Manipal Center, #403, 4th Floor, North Block, Front Wing, Dickenson Road,Bengaluru,Karnataka,560042,India
Infosys Limited,Plot No. 44, Hosur Road, Electronics City,Bengaluru,Karnataka,560100,India
Infosys Limited,Phase III, Hinjawadi,Pune,Maharashtra,411057,India
Infosys Limited,Plot No. 7, Sector-17, Special Economic Zone, MIHAN,Nagpur,Maharashtra,441108,India
Infosys Limited,Plot No. 1, Technopark Campus II, Attipra Village,Thiruvananthapuram,Kerala,695583,India
Infosys Limited,Chandigarh IT Park, Kishangarh,Chandigarh,Chandigarh,160101,India
Infosys Limited,Survey No. 210, Manikonda Village, Lingampally Mandal,Hyderabad,Telangana,500032,India
Infosys Limited,No. 138, Old Mahabalipuram Road, Sholinganallur,Chennai,Tamil Nadu,600119,India
Infosys Limited,Plot No. 305, Road No. 78, Jubilee Hills,Hyderabad,Telangana,500033,India
Infosys Limited,Plot No. 26, Rajiv Gandhi Infotech Park, Phase II, Hinjawadi,Pune,Maharashtra,411057,India
Infosys Limited,Plot No. 24, Rajiv Gandhi Infotech Park, Phase II, Hinjawadi,Pune,Maharashtra,411057,India
Infosys Limited,Plot No. 22, Rajiv Gandhi Infotech Park, Phase II, Hinjawadi,Pune,Maharashtra,411057,India
Infosys Limited,Plot No. 20, Rajiv Gandhi Infotech Park, Phase II, Hinjawadi,Pune,Maharashtra,411057,India
Infosys Limited,Plot No. 18, Rajiv Gandhi Infotech Park, Phase II, Hinjawadi,Pune,Maharashtra,411057,India
Infosys Limited,Plot No. 16, Rajiv Gandhi Infotech Park, Phase II, Hinjawadi,Pune,Maharashtra,411057,India
Infosys Limited,Plot No. 14, Rajiv Gandhi Infotech Park, Phase II, Hinjawadi,Pune,Maharashtra,411057,India
Infosys Limited,Plot No. 12, Rajiv Gandhi Infotech Park, Phase II, Hinjawadi,Pune,Maharashtra,411057,India
Infosys Limited,Plot No. 10, Rajiv Gandhi Infotech Park, Phase II, Hinjawadi,Pune,Maharashtra,411057,India
Infosys Limited,Plot No. 8, Rajiv Gandhi Infotech Park, Phase II, Hinjawadi,Pune,Maharashtra,411057,India
Infosys Limited,Plot No. 6, Rajiv Gandhi Infotech Park, Phase II, Hinjawadi,Pune,Maharashtra,411057,India
Infosys Limited,Plot No. 4, Rajiv Gandhi Infotech Park, Phase II, Hinjawadi,Pune,Maharashtra,411057,India
Infosys Limited,Plot No. 2, Rajiv Gandhi Infotech Park, Phase II, Hinjawadi,Pune,Maharashtra,411057,India
Infosys Limited,Plot No. 1, Rajiv Gandhi Infotech Park, Phase II, Hinjawadi,Pune,Maharashtra,411057,India
Infosys Limited,Plot No. 3, Rajiv Gandhi Infotech Park, Phase II, Hinjawadi,Pune,Maharashtra,411057,India
Infosys Limited,Plot No. 5, Rajiv Gandhi Infotech Park, Phase II, Hinjawadi,Pune,Maharashtra,411057,India
Infosys Limited,Plot No. 7, Rajiv Gandhi Infotech Park, Phase II, Hinjawadi,Pune,Maharashtra,411057,India
Infosys Limited,Plot No. 9, Rajiv Gandhi Infotech Park, Phase II, Hinjawadi,Pune,Maharashtra,411057,India
Infosys Limited,Plot No. 11, Rajiv Gandhi Infotech Park, Phase II, Hinjawadi,Pune,Maharashtra,411057,India
Infosys Limited,Plot No. 13, Rajiv Gandhi Infotech Park, Phase II, Hinjawadi,Pune,Maharashtra,411057,India
Infosys Limited,Plot No. 15, Rajiv Gandhi Infotech Park, Phase II, Hinjawadi,Pune,Maharashtra,411057,India
Infosys Limited,Plot No. 17, Rajiv Gandhi Infotech Park, Phase II, Hinjawadi,Pune,Maharashtra,411057,India
Infosys Limited,Plot No. 19, Rajiv Gandhi Infotech Park, Phase II, Hinjawadi,Pune,Maharashtra,411057,India
Infosys Limited,Plot No. 21, Rajiv Gandhi Infotech Park, Phase II, Hinjawadi,Pune,Maharashtra,411057,India
Infosys Limited,Plot No. 23, Rajiv Gandhi Infotech Park, Phase II, Hinjawadi,Pune,Maharashtra,411057,India
Infosys Limited,Plot No. 25, Rajiv Gandhi Infotech Park, Phase II, Hinjawadi,Pune,Maharashtra,411057,India
Infosys Limited,Plot No. 27, Rajiv Gandhi Infotech Park, Phase II, Hinjawadi,Pune,Maharashtra,411057,India
Infosys Limited,Plot No. 29, Rajiv Gandhi Infotech Park, Phase II, Hinjawadi,Pune,Maharashtra,411057,India
Infosys Limited,Plot No. 31, Rajiv Gandhi Infotech Park, Phase II, Hinjawadi,Pune,Maharashtra,411057,India
Infosys Limited,Plot No. 33, Rajiv Gandhi Infotech Park, Phase II, Hinjawadi,Pune,Maharashtra,411057,India
Infosys Limited,Plot No. 35, Rajiv Gandhi Infotech Park, Phase II, Hinjawadi,Pune,Maharashtra,411057,India